[{"OBJECT_NAME":"MESON-1","OBJECT_ID":"2024-043AK","EPOCH":"2026-03-09T21:36:16.481664","MEAN_MOTION":15.29893494,"ECCENTRICITY":0.00095452,"INCLINATION":97.5469,"RA_OF_ASC_NODE":205.2839,"ARG_OF_PERICENTER":227.1432,"MEAN_ANOMALY":132.9007,"EPHEMERIS_TYPE":0,"CLASSIFICATION_TYPE":"U","NORAD_CAT_ID":59131,"ELEMENT_SET_NO":999,"REV_AT_EPOCH":11189,"BSTAR":0.0002974823,"MEAN_MOTION_DOT":8.544e-5,"MEAN_MOTION_DDOT":0},{"OBJECT_NAME":"STARLINK-32894","OBJECT_ID":"2025-029X","EPOCH":"2026-03-09T21:47:05.339616","MEAN_MOTION":15.3021001,"ECCENTRICITY":0.00010171,"INCLINATION":53.1604,"RA_OF_ASC_NODE":231.2509,"ARG_OF_PERICENTER":100.0958,"MEAN_ANOMALY":260.0157,"EPHEMERIS_TYPE":0,"CLASSIFICATION_TYPE":"U","NORAD_CAT_ID":62969,"ELEMENT_SET_NO":999,"REV_AT_EPOCH":6135,"BSTAR":0.0011166665,"MEAN_MOTION_DOT":0.0003287,"MEAN_MOTION_DDOT":0}]
