MESON-1                 
1 59131U 24043AK  26068.90019075  .00008544  00000+0  29748-3 0  9998
2 59131  97.5469 205.2839 0009545 227.1432 132.9007 15.29893494111890
STARLINK-32894          
1 62969U 25029X   26068.90770068  .00032870  00000+0  11167-2 0  9996
2 62969  53.1604 231.2509 0001017 100.0958 260.0157 15.30210010 61356
